SMDC ONE 2.4            
1 39469U 13072H   26068.55980652  .00015821  00000+0  65974-3 0  9996
2 39469 120.4883 328.0945 0137633 267.6479  90.8828 15.15767863102719
STARLINK-34100          
1 64385U 25127R   26068.62312048  .00023952  00000+0  87620-3 0  9997
2 64385  43.0043 180.4476 0002542 293.0590  66.9994 15.27611959 42402
